OBJECT_NAME,OBJECT_ID,EPOCH,MEAN_MOTION,ECCENTRICITY,INCLINATION,RA_OF_ASC_NODE,ARG_OF_PERICENTER,MEAN_ANOMALY,EPHEMERIS_TYPE,CLASSIFICATION_TYPE,NORAD_CAT_ID,ELEMENT_SET_NO,REV_AT_EPOCH,BSTAR,MEAN_MOTION_DOT,MEAN_MOTION_DDOT
INTELSAT 35E (IS-35E),2017-041A,2026-06-16T00:52:21.281088,1.00268832,.0001597,0.0173,323.5902,114.9763,164.3310,0,U,42818,999,3280,0,-.238E-5,0
COSMOS 2520,2017-046A,2026-06-15T06:25:50.125728,1.00277164,.00015923,0.0473,88.1890,33.7731,283.0557,0,U,42907,999,3237,0,.14E-5,0
TDRS 13,2017-047A,2026-06-16T02:41:39.008256,1.00271436,.0014434,3.4514,2.7150,106.3601,184.2865,0,U,42915,999,3233,0,-.101E-5,0
QZS-3 (MICHIBIKI-3),2017-048A,2026-06-15T23:55:30.484704,1.00276230,.000182,0.0673,172.1033,269.2904,308.6991,0,U,42917,999,3224,0,-.347E-5,0
AMAZONAS 5,2017-053A,2026-06-16T00:44:51.043776,1.00268892,.000206,0.0306,329.1489,61.5366,183.8240,0,U,42934,999,3203,0,-.282E-5,0
ASIASAT 9,2017-057A,2026-06-15T23:54:23.094432,1.00264626,.0002502,0.0409,47.7061,28.2622,309.0556,0,U,42942,999,3184,0,0,0
INTELSAT 37E (IS-37E),2017-059A,2026-06-16T02:39:46.687392,1.00271763,.0002356,0.0185,24.5523,81.8712,179.9212,0,U,42950,999,3205,0,-.141E-5,0
BSAT-4A,2017-059B,2026-06-14T19:36:38.641824,1.00269277,.00038622,0.0440,28.2570,39.4526,239.3850,0,U,42951,999,3177,0,-.344E-5,0
QZS-4 (MICHIBIKI-4),2017-062A,2026-06-15T08:32:30.732000,1.00250711,.07452236,40.1089,343.5053,271.7370,273.6485,0,U,42965,999,3178,0,-.342E-5,0
SES-11 (ECHOSTAR 105),2017-063A,2026-06-16T05:00:38.648160,1.00270635,.0002692,0.0168,334.9735,95.2114,164.5102,0,U,42967,999,3171,0,-.89E-6,0
KOREASAT 5A,2017-067A,2026-06-16T01:34:31.613088,1.00271256,.0000559,0.0129,24.7197,68.7516,307.6545,0,U,42984,999,3151,0,-.358E-5,0
ALCOMSAT 1,2017-078A,2026-06-16T02:37:46.879104,1.00269414,.0002229,0.0351,265.8757,167.4024,205.7483,0,U,43039,999,3128,0,-.186E-5,0
SBIRS GEO-3 (USA 282),2018-009A,2026-06-15T15:43:28.541280,1.00271743,.0001799,2.1832,12.0334,63.9641,264.4077,0,U,43162,999,3082,0,.129E-5,0
AL YAH 3,2018-012A,2026-06-16T02:39:09.245952,1.00269924,.0003869,1.5495,83.1207,0.5070,200.4303,0,U,43174,999,3083,0,-.157E-5,0
SES-14,2018-012B,2026-06-16T02:31:23.662272,1.00270188,.0000803,0.0205,29.7358,51.0063,173.9816,0,U,43175,999,701,0,-.279E-5,0
GOES 17,2018-022A,2026-06-16T04:52:38.716896,1.00269816,.0000415,0.9351,85.7296,33.4704,128.9309,0,U,43226,999,3041,0,-.183E-5,0
HISPASAT 30W-6,2018-023A,2026-06-16T02:36:24.511392,1.00270047,.0005677,0.0479,44.3394,25.5936,203.5462,0,U,43228,999,3039,0,-.216E-5,0
SUPERBIRD-B3,2018-033A,2026-06-16T00:34:38.714016,1.00271449,.000089,0.0141,340.3181,96.2280,358.4190,0,U,43271,999,3004,0,-.92E-6,0
HYLAS 4,2018-033B,2026-06-15T16:19:25.094784,1.00268678,.00007668,0.0163,21.0818,53.9327,40.2992,0,U,43272,999,3005,0,-.232E-5,0
IRNSS-1I,2018-035A,2026-06-15T20:09:20.172384,1.00272046,.00178117,28.7520,74.2167,181.5598,5.5147,0,U,43286,999,3006,0,.62E-6,0
USA 283,2018-036A,2026-06-12T17:15:31.472064,1.00273175,.0000436,0.0199,335.2360,187.5113,131.2828,0,U,43339,999,2524,0,0,0
COSMOS 2526,2018-037A,2026-06-15T22:55:23.138688,1.00273723,.0000759,0.0272,38.6905,185.4300,152.0283,0,U,43432,999,2994,0,-.344E-5,0
APSTAR-6C,2018-041A,2026-06-16T00:04:36.630336,1.00269349,.0000991,0.0249,7.8383,332.0710,59.5257,0,U,43450,999,2979,0,-.318E-5,0
BANGABANDHUSAT-1,2018-044A,2026-06-15T23:53:30.678144,1.00270339,.0001603,0.0204,70.0457,10.9925,300.7109,0,U,43463,999,2969,0,-.362E-5,0
SES-12,2018-049A,2026-06-16T03:12:02.673792,1.00268189,.0000803,0.0157,14.0329,265.4343,127.9577,0,U,43488,999,2940,0,-.269E-5,0
FENGYUN 2H,2018-050A,2026-06-16T01:24:55.033920,1.00269672,.0002,3.0276,79.0815,138.2067,147.6875,0,U,43491,999,2942,0,-.132E-5,0
BEIDOU-2 IGSO-7,2018-057A,2026-06-15T22:07:43.170816,1.00251416,.0105068,55.1938,163.0687,238.0100,305.1024,0,U,43539,999,2911,0,-.27E-6,0
TELSTAR 19V,2018-059A,2026-06-15T05:55:00.579936,1.00269701,.0002418,0.0197,163.3787,312.0896,173.8125,0,U,43562,999,2912,0,-.276E-5,0
TELKOM 4 (MERAH PUTIH),2018-064A,2026-06-16T01:33:01.756224,1.00271009,.0001213,0.0133,295.9794,183.6293,275.9842,0,U,43587,999,2886,0,-.344E-5,0
TELSTAR 18V,2018-069A,2026-06-14T18:53:42.897120,1.00270067,.00016127,0.0122,311.2047,128.7151,244.5797,0,U,43611,999,2861,0,-.288E-5,0
AZERSPACE 2 (IS-38),2018-074A,2026-06-16T02:57:44.962848,1.00270182,.0001205,0.0158,340.7914,103.6542,269.4949,0,U,43632,999,2843,0,.137E-5,0
