INTELSAT 35E (IS-35E)   
1 42818U 17041A   26167.03635742 -.00000238  00000+0  00000+0 0  9990
2 42818   0.0173 323.5902 0001597 114.9763 164.3310  1.00268832 32804
COSMOS 2520             
1 42907U 17046A   26166.26794127  .00000140  00000+0  00000+0 0  9992
2 42907   0.0473  88.1890 0001592  33.7731 283.0557  1.00277164 32376
TDRS 13                 
1 42915U 17047A   26167.11225704 -.00000101  00000+0  00000+0 0  9995
2 42915   3.4514   2.7150 0014434 106.3601 184.2865  1.00271436 32337
QZS-3 (MICHIBIKI-3)     
1 42917U 17048A   26166.99688061 -.00000347  00000+0  00000+0 0  9994
2 42917   0.0673 172.1033 0001820 269.2904 308.6991  1.00276230 32249
AMAZONAS 5              
1 42934U 17053A   26167.03114634 -.00000282  00000+0  00000+0 0  9993
2 42934   0.0306 329.1489 0002060  61.5366 183.8240  1.00268892 32034
ASIASAT 9               
1 42942U 17057A   26166.99610063  .00000000  00000+0  00000+0 0  9994
2 42942   0.0409  47.7061 0002502  28.2622 309.0556  1.00264626 31843
INTELSAT 37E (IS-37E)   
1 42950U 17059A   26167.11095703 -.00000141  00000+0  00000+0 0  9995
2 42950   0.0185  24.5523 0002356  81.8712 179.9212  1.00271763 32058
BSAT-4A                 
1 42951U 17059B   26165.81711391 -.00000344  00000+0  00000+0 0  9994
2 42951   0.0440  28.2570 0003862  39.4526 239.3850  1.00269277 31775
QZS-4 (MICHIBIKI-4)     
1 42965U 17062A   26166.35591125 -.00000342  00000+0  00000+0 0  9992
2 42965  40.1089 343.5053 0745223 271.7370 273.6485  1.00250711 31784
SES-11 (ECHOSTAR 105)   
1 42967U 17063A   26167.20878065 -.00000089  00000+0  00000+0 0  9999
2 42967   0.0168 334.9735 0002692  95.2114 164.5102  1.00270635 31715
KOREASAT 5A             
1 42984U 17067A   26167.06564367 -.00000358  00000+0  00000+0 0  9992
2 42984   0.0129  24.7197 0000559  68.7516 307.6545  1.00271256 31517
ALCOMSAT 1              
1 43039U 17078A   26167.10957036 -.00000186  00000+0  00000+0 0  9999
2 43039   0.0351 265.8757 0002229 167.4024 205.7483  1.00269414 31289
SBIRS GEO-3 (USA 282)   
1 43162U 18009A   26166.65519145  .00000129  00000+0  00000+0 0  9991
2 43162   2.1832  12.0334 0001799  63.9641 264.4077  1.00271743 30820
AL YAH 3                
1 43174U 18012A   26167.11052368 -.00000157  00000+0  00000+0 0  9991
2 43174   1.5495  83.1207 0003869   0.5070 200.4303  1.00269924 30833
SES-14                  
1 43175U 18012B   26167.10513498 -.00000279  00000+0  00000+0 0  9992
2 43175   0.0205  29.7358 0000803  51.0063 173.9816  1.00270188  7019
GOES 17                 
1 43226U 18022A   26167.20322589 -.00000183  00000+0  00000+0 0  9994
2 43226   0.9351  85.7296 0000415  33.4704 128.9309  1.00269816 30418
HISPASAT 30W-6          
1 43228U 18023A   26167.10861703 -.00000216  00000+0  00000+0 0  9999
2 43228   0.0479  44.3394 0005677  25.5936 203.5462  1.00270047 30391
SUPERBIRD-B3            
1 43271U 18033A   26167.02405919 -.00000092  00000+0  00000+0 0  9994
2 43271   0.0141 340.3181 0000890  96.2280 358.4190  1.00271449 30044
HYLAS 4                 
1 43272U 18033B   26166.68015156 -.00000232  00000+0  00000+0 0  9992
2 43272   0.0163  21.0818 0000766  53.9327  40.2992  1.00268678 30050
IRNSS-1I                
1 43286U 18035A   26166.83981681  .00000062  00000+0  00000+0 0  9991
2 43286  28.7520  74.2167 0017811 181.5598   5.5147  1.00272046 30064
USA 283                 
1 43339U 18036A   26163.71911426  .00000000  00000+0  00000+0 0  9997
2 43339   0.0199 335.2360 0000436 187.5113 131.2828  1.00273175 25248
COSMOS 2526             
1 43432U 18037A   26166.95512892 -.00000344  00000+0  00000+0 0  9997
2 43432   0.0272  38.6905 0000759 185.4300 152.0283  1.00273723 29942
APSTAR-6C               
1 43450U 18041A   26167.00320174 -.00000318  00000+0  00000+0 0  9990
2 43450   0.0249   7.8383 0000991 332.0710  59.5257  1.00269349 29791
BANGABANDHUSAT-1        
1 43463U 18044A   26166.99549396 -.00000362  00000+0  00000+0 0  9992
2 43463   0.0204  70.0457 0001603  10.9925 300.7109  1.00270339 29698
SES-12                  
1 43488U 18049A   26167.13336428 -.00000269  00000+0  00000+0 0  9997
2 43488   0.0157  14.0329 0000803 265.4343 127.9577  1.00268189 29407
FENGYUN 2H              
1 43491U 18050A   26167.05897030 -.00000132  00000+0  00000+0 0  9994
2 43491   3.0276  79.0815 0002000 138.2067 147.6875  1.00269672 29428
BEIDOU-2 IGSO-7         
1 43539U 18057A   26166.92202744 -.00000027  00000+0  00000+0 0  9994
2 43539  55.1938 163.0687 0105068 238.0100 305.1024  1.00251416 29110
TELSTAR 19V             
1 43562U 18059A   26166.24653449 -.00000276  00000+0  00000+0 0  9995
2 43562   0.0197 163.3787 0002418 312.0896 173.8125  1.00269701 29125
TELKOM 4 (MERAH PUTIH)  
1 43587U 18064A   26167.06460366 -.00000344  00000+0  00000+0 0  9999
2 43587   0.0133 295.9794 0001213 183.6293 275.9842  1.00271009 28861
TELSTAR 18V             
1 43611U 18069A   26165.78730205 -.00000288  00000+0  00000+0 0  9998
2 43611   0.0122 311.2047 0001612 128.7151 244.5797  1.00270067 28613
AZERSPACE 2 (IS-38)     
1 43632U 18074A   26167.12343707  .00000137  00000+0  00000+0 0  9996
2 43632   0.0158 340.7914 0001205 103.6542 269.4949  1.00270182 28432
